{
  "type": "FeatureCollection",
  "features": [
    {
      "type": "Feature",
      "properties": {
        "norad_id": 40069,
        "name": "METEOR-M 2",
        "group": "weather",
        "lat": -76.90155565292122,
        "lon": 106.27005833904057,
        "alt_km": 825.9680457815366,
        "timestamp": "2025-12-14T16:47:40.325978+00:00",
        "meta_object_name": "METEOR-M 2",
        "meta_object_id": "2014-037A",
        "meta_epoch": "2025-12-13T22:40:50.383776",
        "meta_mean_motion": 14.21386699,
        "meta_eccentricity": 0.00050353,
        "meta_inclination": 98.4903,
        "meta_ra_of_asc_node": 325.4833,
        "meta_arg_of_pericenter": 205.8807,
        "meta_mean_anomaly": 154.212,
        "meta_ephemeris_type": 0,
        "meta_classification_type": "U",
        "meta_norad_cat_id": 40069,
        "meta_element_set_no": 999,
        "meta_rev_at_epoch": 59300,
        "meta_bstar": 0.00010284833,
        "meta_mean_motion_dot": 1.83e-06,
        "meta_mean_motion_ddot": 0,
        "tle_line1": "1 40069U 14037A   25347.94502759  .00000183  00000+0  10285-3 0  9996",
        "tle_line2": "2 40069  98.4903 325.4833 0005035 205.8807 154.2120 14.21386699593006"
      },
      "geometry": {
        "type": "Point",
        "coordinates": [
          106.27005833904057,
          -76.90155565292122
        ]
      }
    },
    {
      "type": "Feature",
      "properties": {
        "norad_id": 40267,
        "name": "HIMAWARI-8",
        "group": "weather",
        "lat": -0.0074334394569130924,
        "lon": 116.18050530899683,
        "alt_km": 35789.60576505296,
        "timestamp": "2025-12-14T16:47:40.325992+00:00",
        "meta_object_name": "HIMAWARI-8",
        "meta_object_id": "2014-060A",
        "meta_epoch": "2025-12-13T22:40:45.028704",
        "meta_mean_motion": 1.00273494,
        "meta_eccentricity": 9.609e-05,
        "meta_inclination": 0.0402,
        "meta_ra_of_asc_node": 166.9283,
        "meta_arg_of_pericenter": 114.3802,
        "meta_mean_anomaly": 282.4059,
        "meta_ephemeris_type": 0,
        "meta_classification_type": "U",
        "meta_norad_cat_id": 40267,
        "meta_element_set_no": 999,
        "meta_rev_at_epoch": 4090,
        "meta_bstar": 0,
        "meta_mean_motion_dot": -2.58e-06,
        "meta_mean_motion_ddot": 0,
        "tle_line1": "1 40267U 14060A   25347.94496561 -.00000258  00000+0  00000+0 0  9999",
        "tle_line2": "2 40267   0.0402 166.9283 0000960 114.3802 282.4059  1.00273494 40909"
      },
      "geometry": {
        "type": "Point",
        "coordinates": [
          116.18050530899683,
          -0.0074334394569130924
        ]
      }
    },
    {
      "type": "Feature",
      "properties": {
        "norad_id": 40367,
        "name": "FENGYUN 2G",
        "group": "weather",
        "lat": 0.015460386668530382,
        "lon": 75.01094919099076,
        "alt_km": 35800.66664977928,
        "timestamp": "2025-12-14T16:47:40.326006+00:00",
        "meta_object_name": "FENGYUN 2G",
        "meta_object_id": "2014-090A",
        "meta_epoch": "2025-12-13T19:03:33.526656",
        "meta_mean_motion": 1.00263852,
        "meta_eccentricity": 0.00030684,
        "meta_inclination": 5.1713,
        "meta_ra_of_asc_node": 75.0867,
        "meta_arg_of_pericenter": 199.4917,
        "meta_mean_anomaly": 193.5321,
        "meta_ephemeris_type": 0,
        "meta_classification_type": "U",
        "meta_norad_cat_id": 40367,
        "meta_element_set_no": 999,
        "meta_rev_at_epoch": 4014,
        "meta_bstar": 0,
        "meta_mean_motion_dot": -2.86e-06,
        "meta_mean_motion_ddot": 0,
        "tle_line1": "1 40367U 14090A   25347.79413804 -.00000286  00000+0  00000+0 0  9996",
        "tle_line2": "2 40367   5.1713  75.0867 0003068 199.4917 193.5321  1.00263852 40149"
      },
      "geometry": {
        "type": "Point",
        "coordinates": [
          75.01094919099076,
          0.015460386668530382
        ]
      }
    },
    {
      "type": "Feature",
      "properties": {
        "norad_id": 40732,
        "name": "METEOSAT-11 (MSG-4)",
        "group": "weather",
        "lat": -2.73504461299277,
        "lon": -15.201750863008797,
        "alt_km": 35790.61775766862,
        "timestamp": "2025-12-14T16:47:40.326018+00:00",
        "meta_object_name": "METEOSAT-11 (MSG-4)",
        "meta_object_id": "2015-034A",
        "meta_epoch": "2025-12-13T22:03:11.125728",
        "meta_mean_motion": 1.00267859,
        "meta_eccentricity": 9.197e-05,
        "meta_inclination": 2.7385,
        "meta_ra_of_asc_node": 71.998,
        "meta_arg_of_pericenter": 128.2543,
        "meta_mean_anomaly": 222.6617,
        "meta_ephemeris_type": 0,
        "meta_classification_type": "U",
        "meta_norad_cat_id": 40732,
        "meta_element_set_no": 999,
        "meta_rev_at_epoch": 535,
        "meta_bstar": 0,
        "meta_mean_motion_dot": 7.7e-07,
        "meta_mean_motion_ddot": 0,
        "tle_line1": "1 40732U 15034A   25347.91887877  .00000077  00000+0  00000+0 0  9997",
        "tle_line2": "2 40732   2.7385  71.9980 0000919 128.2543 222.6617  1.00267859  5358"
      },
      "geometry": {
        "type": "Point",
        "coordinates": [
          -15.201750863008797,
          -2.73504461299277
        ]
      }
    },
    {
      "type": "Feature",
      "properties": {
        "norad_id": 41105,
        "name": "ELEKTRO-L 2",
        "group": "weather",
        "lat": -5.795365115980799,
        "lon": -39.051897728895206,
        "alt_km": 35774.27642604872,
        "timestamp": "2025-12-14T16:47:40.326031+00:00",
        "meta_object_name": "ELEKTRO-L 2",
        "meta_object_id": "2015-074A",
        "meta_epoch": "2025-12-13T23:39:09.434304",
        "meta_mean_motion": 1.00272402,
        "meta_eccentricity": 0.00039129,
        "meta_inclination": 6.229,
        "meta_ra_of_asc_node": 72.8143,
        "meta_arg_of_pericenter": 206.981,
        "meta_mean_anomaly": 143.4065,
        "meta_ephemeris_type": 0,
        "meta_classification_type": "U",
        "meta_norad_cat_id": 41105,
        "meta_element_set_no": 999,
        "meta_rev_at_epoch": 3664,
        "meta_bstar": 0,
        "meta_mean_motion_dot": -1.03e-06,
        "meta_mean_motion_ddot": 0,
        "tle_line1": "1 41105U 15074A   25347.98552586 -.00000103  00000+0  00000+0 0  9990",
        "tle_line2": "2 41105   6.2290  72.8143 0003912 206.9810 143.4065  1.00272402 36648"
      },
      "geometry": {
        "type": "Point",
        "coordinates": [
          -39.051897728895206,
          -5.795365115980799
        ]
      }
    },
    {
      "type": "Feature",
      "properties": {
        "norad_id": 41752,
        "name": "INSAT-3DR",
        "group": "weather",
        "lat": -0.034628939975332555,
        "lon": 49.621642690460185,
        "alt_km": 35831.952042857,
        "timestamp": "2025-12-14T16:47:40.326043+00:00",
        "meta_object_name": "INSAT-3DR",
        "meta_object_id": "2016-054A",
        "meta_epoch": "2025-12-13T13:48:11.230272",
        "meta_mean_motion": 1.00271015,
        "meta_eccentricity": 0.00143186,
        "meta_inclination": 0.094,
        "meta_ra_of_asc_node": 86.7306,
        "meta_arg_of_pericenter": 184.0586,
        "meta_mean_anomaly": 92.7569,
        "meta_ephemeris_type": 0,
        "meta_classification_type": "U",
        "meta_norad_cat_id": 41752,
        "meta_element_set_no": 999,
        "meta_rev_at_epoch": 3395,
        "meta_bstar": 0,
        "meta_mean_motion_dot": -6.2e-07,
        "meta_mean_motion_ddot": 0,
        "tle_line1": "1 41752U 16054A   25347.57512998 -.00000062  00000+0  00000+0 0  9999",
        "tle_line2": "2 41752   0.0940  86.7306 0014318 184.0586  92.7569  1.00271015 33958"
      },
      "geometry": {
        "type": "Point",
        "coordinates": [
          49.621642690460185,
          -0.034628939975332555
        ]
      }
    },
    {
      "type": "Feature",
      "properties": {
        "norad_id": 41836,
        "name": "HIMAWARI-9",
        "group": "weather",
        "lat": 0.027014428887523905,
        "lon": 116.28640367973905,
        "alt_km": 35790.24349344883,
        "timestamp": "2025-12-14T16:47:40.326055+00:00",
        "meta_object_name": "HIMAWARI-9",
        "meta_object_id": "2016-064A",
        "meta_epoch": "2025-12-13T19:15:17.404128",
        "meta_mean_motion": 1.00271431,
        "meta_eccentricity": 9.938e-05,
        "meta_inclination": 0.0395,
        "meta_ra_of_asc_node": 96.6597,
        "meta_arg_of_pericenter": 180.6796,
        "meta_mean_anomaly": 234.982,
        "meta_ephemeris_type": 0,
        "meta_classification_type": "U",
        "meta_norad_cat_id": 41836,
        "meta_element_set_no": 999,
        "meta_rev_at_epoch": 3335,
        "meta_bstar": 0,
        "meta_mean_motion_dot": -2.59e-06,
        "meta_mean_motion_ddot": 0,
        "tle_line1": "1 41836U 16064A   25347.80228477 -.00000259  00000+0  00000+0 0  9993",
        "tle_line2": "2 41836   0.0395  96.6597 0000993 180.6796 234.9820  1.00271431 33352"
      },
      "geometry": {
        "type": "Point",
        "coordinates": [
          116.28640367973905,
          0.027014428887523905
        ]
      }
    }
  ]
}